NORAD_CAT_ID,OBJECT_NAME,OBJECT_TYPE,EPOCH,MEAN_MOTION,ECCENTRICITY,INCLINATION,RA_OF_ASC_NODE,ARG_OF_PERICENTER,MEAN_ANOMALY,BSTAR,MEAN_MOTION_DOT,MEAN_MOTION_DDOT,TLE_LINE0,TLE_LINE1,TLE_LINE2,SEMIMAJOR_AXIS,PERIOD,APOGEE,PERIGEE,DECAYED
51876.0,STARLINK-3583,PAYLOAD,2023-04-01 10:50:22,15.08831308,0.0001478,53.2184,147.0761,106.9091,253.2063,1.1959e-05,-9.8e-07,0.0,0 STARLINK-3583,1 51876U 22022AA  23091.45165429 -.00000098  00000-0  11959-4 0  9993,2 51876  53.2184 147.0761 0001478 106.9091 253.2063 15.08831308 61098,6917.907,95.438,540.794,538.749,0.0
51876.0,STARLINK-3583,PAYLOAD,2023-04-01 20:22:41,15.08836072,0.0001405,53.2177,145.2917,99.4966,260.6185,4.6207e-05,4.47e-06,0.0,0 STARLINK-3583,1 51876U 22022AA  23091.84909189  .00000447  00000-0  46207-4 0  9996,2 51876  53.2177 145.2917 0001405  99.4966 260.6185 15.08836072 61157,6917.892,95.438,540.729,538.785,0.0
51876.0,STARLINK-3583,PAYLOAD,2023-04-02 07:30:23,15.08840832,0.0001304,53.2179,143.2097,92.9393,267.1748,5.4924e-05,5.86e-06,0.0,0 STARLINK-3583,1 51876U 22022AA  23092.31277048  .00000586  00000-0  54924-4 0  9990,2 51876  53.2179 143.2097 0001304  92.9393 267.1748 15.08840832 61220,6917.878,95.438,540.645,538.841,0.0
51876.0,STARLINK-3583,PAYLOAD,2023-04-02 12:16:32,15.08842878,0.0001363,53.217,142.3168,89.9254,270.1894,6.7935e-05,7.94e-06,0.0,0 STARLINK-3583,1 51876U 22022AA  23092.51148924  .00000794  00000-0  67935-4 0  9999,2 51876  53.2170 142.3168 0001363  89.9254 270.1894 15.08842878 61258,6917.872,95.437,540.679,538.794,0.0
51876.0,STARLINK-3583,PAYLOAD,2023-04-03 10:31:57,15.08818439,0.0001081,53.2169,138.1526,97.3967,262.7148,0.00041331,6.292e-05,0.0,0 STARLINK-3583,1 51876U 22022AA  23093.43885980  .00006292  00000-0  41331-3 0  9991,2 51876  53.2169 138.1526 0001081  97.3967 262.7148 15.08818439 61398,6917.946,95.439,540.559,539.063,0.0
51876.0,STARLINK-3583,PAYLOAD,2023-04-03 20:04:15,15.08839313,0.0001369,53.217,136.3677,76.3126,283.8019,8.1014e-05,1.002e-05,0.0,0 STARLINK-3583,1 51876U 22022AA  23093.83629453  .00001002  00000-0  81014-4 0  9993,2 51876  53.2170 136.3677 0001369  76.3126 283.8019 15.08839313 61452,6917.882,95.438,540.695,538.8,0.0
51876.0,STARLINK-3583,PAYLOAD,2023-04-04 10:22:43,15.08847422,0.0001377,53.217,133.6933,70.8355,289.2786,9.5686e-05,1.236e-05,0.0,0 STARLINK-3583,1 51876U 22022AA  23094.43244877  .00001236  00000-0  95686-4 0  9992,2 51876  53.2170 133.6933 0001377  70.8355 289.2786 15.08847422 61540,6917.858,95.437,540.675,538.77,0.0
51876.0,STARLINK-3583,PAYLOAD,2023-04-05 02:16:35,15.08839574,0.0001466,53.2172,130.7206,68.6795,291.4353,7.9227e-05,9.73e-06,0.0,0 STARLINK-3583,1 51876U 22022AA  23095.09485316  .00000973  00000-0  79227-4 0  9990,2 51876  53.2172 130.7206 0001466  68.6795 291.4353 15.08839574 61640,6917.882,95.438,540.761,538.733,0.0
51876.0,STARLINK-3583,PAYLOAD,2023-04-05 08:38:07,15.08840398,0.00013,53.2171,129.5298,81.0478,279.0661,5.9475e-05,6.59e-06,0.0,0 STARLINK-3583,1 51876U 22022AA  23095.35981224  .00000659  00000-0  59475-4 0  9992,2 51876  53.2171 129.5298 0001300  81.0478 279.0661 15.08840398 61684,6917.879,95.438,540.643,538.845,0.0
51876.0,STARLINK-3583,PAYLOAD,2023-04-05 19:45:49,15.08841437,0.0001291,53.2166,127.4479,77.8363,282.2774,4.928e-05,4.97e-06,0.0,0 STARLINK-3583,1 51876U 22022AA  23095.82349115  .00000497  00000-0  49280-4 0  9994,2 51876  53.2166 127.4479 0001291  77.8363 282.2774 15.08841437 61755,6917.876,95.437,540.634,538.848,0.0
51876.0,STARLINK-3583,PAYLOAD,2023-04-06 08:28:54,15.08844861,0.0001283,53.2164,125.0687,83.4818,276.632,3.1921e-05,2.2e-06,0.0,0 STARLINK-3583,1 51876U 22022AA  23096.35340789  .00000220  00000-0  31921-4 0  9998,2 51876  53.2164 125.0687 0001283  83.4818 276.6320 15.08844861 61834,6917.866,95.437,540.618,538.843,0.0
51876.0,STARLINK-3583,PAYLOAD,2023-04-07 05:08:55,15.08837334,0.0001257,53.2159,121.2027,83.8836,276.2299,3.5731e-05,2.81e-06,0.0,0 STARLINK-3583,1 51876U 22022AA  23097.21453213  .00000281  00000-0  35731-4 0  9991,2 51876  53.2159 121.2027 0001257  83.8836 276.2299 15.08837334 61961,6917.889,95.438,540.623,538.884,0.0
51876.0,STARLINK-3583,PAYLOAD,2023-04-07 08:19:41,15.08838653,0.0001265,53.216,120.6081,83.4125,276.7011,4.4086e-05,4.14e-06,0.0,0 STARLINK-3583,1 51876U 22022AA  23097.34701109  .00000414  00000-0  44086-4 0  9996,2 51876  53.2160 120.6081 0001265  83.4125 276.7011 15.08838653 61986,6917.885,95.438,540.625,538.874,0.0
51876.0,STARLINK-3583,PAYLOAD,2023-04-08 06:35:05,15.08840119,0.0001236,53.2158,116.4438,93.3627,266.7506,2.4171e-05,9.7e-07,0.0,0 STARLINK-3583,1 51876U 22022AA  23098.27437080  .00000097  00000-0  24171-4 0  9993,2 51876  53.2158 116.4438 0001236  93.3627 266.7506 15.08840119 62122,6917.88,95.438,540.6,538.89,0.0
51876.0,STARLINK-3583,PAYLOAD,2023-04-09 06:25:53,15.08832628,0.000144,53.2177,111.9848,102.5859,257.5294,3.7666e-06,-2.28e-06,0.0,0 STARLINK-3583,1 51876U 22022AA  23099.26797777 -.00000228  00000-0  37666-5 0  9996,2 51876  53.2177 111.9848 0001440 102.5859 257.5294 15.08832628 62279,6917.903,95.438,540.764,538.772,0.0
51876.0,STARLINK-3583,PAYLOAD,2023-04-09 17:33:35,15.0883435,0.0001416,53.2179,109.9037,99.0969,261.0183,1.2282e-05,-9.2e-07,0.0,0 STARLINK-3583,1 51876U 22022AA  23099.73165810 -.00000092  00000-0  12282-4 0  9990,2 51876  53.2179 109.9037 0001416  99.0969 261.0183 15.08834350 62342,6917.898,95.438,540.742,538.783,0.0
51876.0,STARLINK-3583,PAYLOAD,2023-04-10 04:41:16,15.08839986,0.0001358,53.2176,107.8219,97.9941,262.1205,5.3986e-05,5.71e-06,0.0,0 STARLINK-3583,1 51876U 22022AA  23100.19533442  .00000571  00000-0  53986-4 0  9990,2 51876  53.2176 107.8219 0001358  97.9941 262.1205 15.08839986 62415,6917.88,95.438,540.685,538.806,0.0
51876.0,STARLINK-3583,PAYLOAD,2023-04-10 14:13:35,15.08843063,0.0001353,53.2166,106.0365,92.6382,267.4764,6.0276e-05,6.72e-06,0.0,0 STARLINK-3583,1 51876U 22022AA  23100.59277203  .00000672  00000-0  60276-4 0  9996,2 51876  53.2166 106.0365 0001353  92.6382 267.4764 15.08843063 62478,6917.871,95.437,540.672,538.8,0.0
51876.0,STARLINK-3583,PAYLOAD,2023-04-10 17:24:22,15.08837685,0.0001368,53.2168,105.4413,92.8792,267.2356,2.4656e-05,1.04e-06,0.0,0 STARLINK-3583,1 51876U 22022AA  23100.72525636  .00000104  00000-0  24656-4 0  9999,2 51876  53.2168 105.4413 0001368  92.8792 267.2356 15.08837685 62490,6917.887,95.438,540.699,538.806,0.0
51876.0,STARLINK-3583,PAYLOAD,2023-04-11 09:18:13,15.08840601,0.0001421,53.2171,102.4675,96.7429,263.3725,9.1636e-05,1.171e-05,0.0,0 STARLINK-3583,1 51876U 22022AA  23101.38765356  .00001171  00000-0  91636-4 0  9994,2 51876  53.2171 102.4675 0001421  96.7429 263.3725 15.08840601 62591,6917.879,95.438,540.727,538.761,0.0
51876.0,STARLINK-3583,PAYLOAD,2023-04-11 17:15:09,15.08836652,0.0001497,53.2168,100.9813,88.3911,271.7252,3.723e-05,3.05e-06,0.0,0 STARLINK-3583,1 51876U 22022AA  23101.71885873  .00000305  00000-0  37230-4 0  9996,2 51876  53.2168 100.9813 0001497  88.3911 271.7252 15.08836652 62645,6917.891,95.438,540.791,538.72,0.0
51876.0,STARLINK-3583,PAYLOAD,2023-04-12 12:19:46,15.08844758,0.0001261,53.2165,97.4128,90.8749,269.2388,3.8576e-05,3.26e-06,0.0,0 STARLINK-3583,1 51876U 22022AA  23102.51373275  .00000326  00000-0  38576-4 0  9990,2 51876  53.2165  97.4128 0001261  90.8749 269.2388 15.08844758 62768,6917.866,95.437,540.603,538.859,0.0
51876.0,STARLINK-3583,PAYLOAD,2023-04-12 17:05:56,15.08835224,9.11e-05,53.2168,96.5224,70.5211,289.5879,-8.4706e-05,-1.635e-05,0.0,0 STARLINK-3583,1 51876U 22022AA  23102.71246112 -.00001635  00000-0 -84706-4 0  9993,2 51876  53.2168  96.5224 0000911  70.5211 289.5879 15.08835224 62799,6917.895,95.438,540.39,539.13,0.0
51876.0,STARLINK-3583,PAYLOAD,2023-04-13 08:59:47,15.08839874,0.0001297,53.2162,93.547,92.4664,267.6477,9.3116e-06,-1.4e-06,0.0,0 STARLINK-3583,1 51876U 22022AA  23103.37485843 -.00000140  00000-0  93116-5 0  9997,2 51876  53.2162  93.5470 0001297  92.4664 267.6477 15.08839874 62893,6917.881,95.438,540.643,538.849,0.0
51876.0,STARLINK-3583,PAYLOAD,2023-04-13 16:56:43,15.08839131,0.0001383,53.2177,92.0593,88.8624,271.2526,3.5691e-05,2.8e-06,0.0,0 STARLINK-3583,1 51876U 22022AA  23103.70605847  .00000280  00000-0  35691-4 0  9999,2 51876  53.2177  92.0593 0001383  88.8624 271.2526 15.08839131 62948,6917.883,95.438,540.705,538.791,0.0
51876.0,STARLINK-3583,PAYLOAD,2023-04-14 08:50:34,15.08847121,0.0001321,53.2176,89.0848,94.5345,265.5798,8.3533e-05,1.042e-05,0.0,0 STARLINK-3583,1 51876U 22022AA  23104.36845184  .00001042  00000-0  83533-4 0  9997,2 51876  53.2176  89.0848 0001321  94.5345 265.5798 15.08847121 63049,6917.859,95.437,540.637,538.81,0.0
51876.0,STARLINK-3583,PAYLOAD,2023-04-15 07:05:58,15.08843409,0.0001301,53.2172,84.9241,80.7613,279.3527,4.8713e-05,4.88e-06,0.0,0 STARLINK-3583,1 51876U 22022AA  23105.29581770  .00000488  00000-0  48713-4 0  9992,2 51876  53.2172  84.9241 0001301  80.7613 279.3527 15.08843409 63182,6917.87,95.437,540.635,538.835,0.0
51876.0,STARLINK-3583,PAYLOAD,2023-04-16 05:21:22,15.08838099,0.0001088,53.2166,80.7641,86.4298,273.6818,7.4787e-05,9.03e-06,0.0,0 STARLINK-3583,1 51876U 22022AA  23106.22318135  .00000903  00000-0  74787-4 0  9991,2 51876  53.2166  80.7641 0001088  86.4298 273.6818 15.08838099 63322,6917.886,95.438,540.504,538.999,0.0
51876.0,STARLINK-3583,PAYLOAD,2023-04-16 08:32:08,15.08850337,0.0001212,53.217,80.166,91.6695,268.4436,4.5761e-05,4.41e-06,0.0,0 STARLINK-3583,1 51876U 22022AA  23106.35565371  .00000441  00000-0  45761-4 0  9998,2 51876  53.2170  80.1660 0001212  91.6695 268.4436 15.08850337 63349,6917.849,95.437,540.552,538.875,0.0
51876.0,STARLINK-3583,PAYLOAD,2023-04-17 06:47:33,15.08842587,0.000102,53.2165,76.0021,94.3535,265.7573,6.4432e-05,7.38e-06,0.0,0 STARLINK-3583,1 51876U 22022AA  23107.28302089  .00000738  00000-0  64432-4 0  9991,2 51876  53.2165  76.0021 0001020  94.3535 265.7573 15.08842587 63483,6917.872,95.437,540.443,539.032,0.0
